[{"OBJECT_NAME":"SAUDISAT 5B","OBJECT_ID":"2018-102C","EPOCH":"2026-03-09T22:59:17.457216","MEAN_MOTION":15.27248504,"ECCENTRICITY":0.00120577,"INCLINATION":97.3281,"RA_OF_ASC_NODE":135.3629,"ARG_OF_PERICENTER":124.0958,"MEAN_ANOMALY":236.1427,"EPHEMERIS_TYPE":0,"CLASSIFICATION_TYPE":"U","NORAD_CAT_ID":43833,"ELEMENT_SET_NO":999,"REV_AT_EPOCH":40064,"BSTAR":0.00024926623,"MEAN_MOTION_DOT":6.596e-5,"MEAN_MOTION_DDOT":0},{"OBJECT_NAME":"STARLINK-36066","OBJECT_ID":"2025-270E","EPOCH":"2026-03-09T22:53:39.207264","MEAN_MOTION":15.27618932,"ECCENTRICITY":0.00014596,"INCLINATION":42.9982,"RA_OF_ASC_NODE":54.9138,"ARG_OF_PERICENTER":216.5713,"MEAN_ANOMALY":143.504,"EPHEMERIS_TYPE":0,"CLASSIFICATION_TYPE":"U","NORAD_CAT_ID":66592,"ELEMENT_SET_NO":999,"REV_AT_EPOCH":1764,"BSTAR":0.00094099515,"MEAN_MOTION_DOT":0.00025753,"MEAN_MOTION_DDOT":0}]
